YAOGAN-43 01D           
1 60461U 24148D   26068.43560480  .00010676  00000+0  37766-3 0  9999
2 60461  35.0010  61.7102 0002556 326.2473  33.8080 15.28369377 87008
STARLINK-32366          
1 61551U 24184V   26068.16918327 -.00005260  00000+0 -16551-3 0  9991
2 61551  53.1624  16.6139 0001354 137.4615 222.6491 15.30213666 78427
